STARLINK-1792
1 26693C 20073Z   21325.15972859 -.00021148  00000-0 -14170-2 0  3255
2 26693  53.0543  87.5090 0001201  76.4068 149.0940 15.06417934    12
